{
  "norad_id": 68558,
  "name": "STARLINK-37227",
  "history": [
    {
      "epoch": "2026-04-09T20:00:01.999008Z",
      "apogee_km": 272.7707594316098,
      "perigee_km": 271.89422755236774,
      "latitude_deg": -30.024322009482024,
      "longitude_deg": 65.2002709277036,
      "height_km": 281.4254844157122,
      "semi_major_axis_km": 6650.469493491988,
      "eccentricity": 6.59e-05,
      "inclination_deg": 53.1585,
      "raan_deg": 228.786,
      "arg_perigee_deg": 43.6445,
      "mean_anomaly_deg": 277.9579,
      "mean_motion_rev_day": 16.00752923
    }
  ]
}