STARLINK-37227          
1 68558U 26070S   26099.83335647 -.00975103  31996-3 -17751-2 0  9993
2 68558  53.1585 228.7860 0000659  43.6445 277.9579 16.00752923  2384
